STARLINK-1123           
1 44930U 20001S   26068.04844908  .00013034  00000+0  48008-3 0  9995
2 44930  53.1509 348.0782 0001603  74.6386 285.4791 15.28178758339778
TIANMU-1 07             
1 57399U 23101A   26065.57454230  .00008352  00000+0  29795-3 0  9991
2 57399  97.2728 118.5929 0004609 142.4105 217.7458 15.29118809145964
